{"spkid": "50102736", "covariance": {"labels": ["e", "q", "tp", "node", "peri", "i"], "data": [["2.361998560218826E-15", "-5.659408873552056E-15", "9.101115689416986E-13", "-1.663813209692487E-14", "1.367017477860554E-12", "1.316706992328831E-13"], ["-5.659408873552056E-15", "1.435428452140638E-14", "-2.314665516663783E-12", "3.979143819266328E-14", "-3.47019246535294E-12", "-3.570693439029358E-13"], ["9.101115689416986E-13", "-2.314665516663783E-12", "4.013785511789644E-10", "1.145518104284839E-11", "5.791811345289292E-10", "4.907385608905134E-11"], ["-1.663813209692487E-14", "3.979143819266328E-14", "1.145518104284839E-11", "1.760968041688511E-10", "-1.684154289902886E-10", "1.611801628873517E-11"], ["1.367017477860554E-12", "-3.47019246535294E-12", "5.791811345289292E-10", "-1.684154289902886E-10", "1.031250394783874E-9", "6.282394646673696E-11"], ["1.316706992328831E-13", "-3.570693439029358E-13", "4.907385608905134E-11", "1.611801628873517E-11", "6.282394646673696E-11", "2.169651815372732E-10"]], "elements": [{"name": "e", "sigma": 4.86003967084511e-08, "units": null, "title": "eccentricity", "value": ".6197426954820249", "label": "e"}, {"label": "q", "title": "perihelion distance", "value": ".9513553196692274", "units": "au", "name": "q", "sigma": 1.19809367419273e-07}, {"name": "tp", "sigma": 2.00344341367298e-05, "title": "time of perihelion passage", "value": "2452308.096827422263", "units": "TDB", "label": "tp"}, {"name": "om", "sigma": 1.32701471042657e-05, "units": "deg", "value": "102.032981182385", "title": "longitude of the ascending node", "label": "node"}, {"label": "peri", "units": "deg", "title": "argument of perihelion", "value": "36.27529209273914", "sigma": 3.21130875934388e-05, "name": "w"}, {"sigma": 1.4729737999614e-05, "name": "i", "title": "inclination", "value": "7.929481484456057", "units": "deg", "label": "i"}], "epoch": "2452296.5"}, "elements": [{"label": "e", "sigma": "4.5023E-8", "name": "e", "units": null, "title": "eccentricity", "value": ".6225481368978614"}, {"units": "au", "title": "semi-major axis", "value": "2.493495891635649", "sigma": "7.0386E-8", "name": "a", "label": "a"}, {"value": ".9411746699354039", "title": "perihelion distance", "units": "au", "name": "q", "sigma": "1.0229E-7", "label": "q"}, {"label": "i", "title": "inclination; angle with respect to x-y ecliptic plane", "value": "7.931378991063642", "units": "deg", "sigma": "1.4743E-5", "name": "i"}, {"name": "om", "sigma": "1.3311E-5", "title": "longitude of the ascending node", "value": "101.9253901737513", "units": "deg", "label": "node"}, {"label": "peri", "value": "36.28097046010759", "title": "argument of perihelion", "units": "deg", "name": "w", "sigma": "3.1984E-5"}, {"sigma": "8.9451E-5", "name": "ma", "units": "deg", "title": "mean anomaly", "value": "62.24248272823563", "label": "M"}, {"units": "TDB", "title": "time of perihelion passage", "value": "2460951.845788664099", "sigma": ".00034683", "name": "tp", "label": "tp"}, {"value": "1438.173931328684", "title": "sidereal orbital period", "units": "d", "name": "per", "sigma": "6.0895E-5", "label": "period"}, {"units": "deg/d", "value": ".2503174283429037", "title": "mean motion", "name": "n", "sigma": "1.0599E-8", "label": "n"}, {"label": "Q", "name": "ad", "sigma": "1.142E-7", "title": "aphelion distance", "value": "4.045817113335893", "units": "au"}], "epoch": "2461200.5"}